NORAD_CAT_ID,OBJECT_NAME,OBJECT_TYPE,EPOCH,MEAN_MOTION,ECCENTRICITY,INCLINATION,RA_OF_ASC_NODE,ARG_OF_PERICENTER,MEAN_ANOMALY,BSTAR,MEAN_MOTION_DOT,MEAN_MOTION_DDOT,TLE_LINE0,TLE_LINE1,TLE_LINE2,SEMIMAJOR_AXIS,PERIOD,APOGEE,PERIGEE,DECAYED
52262.0,STARLINK-3761,PAYLOAD,2024-06-12 22:23:59,15.08834062,0.0001338,53.2178,78.6056,94.0453,266.0692,2.8127e-05,1.6e-06,0.0,0 STARLINK-3761,1 52262U 22041B   24164.93332588  .00000160  00000-0  28127-4 0  9995,2 52262  53.2178  78.6056 0001338  94.0453 266.0692 15.08834062118533,6917.899,95.438,540.689,538.838,0.0
52262.0,STARLINK-3761,PAYLOAD,2024-06-13 11:07:03,15.08851121,0.0001397,53.2187,76.227,84.8247,275.2905,0.00015017,2.104e-05,0.0,0 STARLINK-3761,1 52262U 22041B   24165.46323166  .00002104  00000-0  15017-3 0  9999,2 52262  53.2187  76.2270 0001397  84.8247 275.2905 15.08851121119836,6917.846,95.437,540.678,538.745,0.0
52262.0,STARLINK-3761,PAYLOAD,2024-06-13 22:14:46,15.08830801,0.0001189,53.2174,74.1453,96.5056,263.6071,6.7791e-05,7.91e-06,0.0,0 STARLINK-3761,1 52262U 22041B   24165.92692749  .00000791  00000-0  67791-4 0  9993,2 52262  53.2174  74.1453 0001189  96.5056 263.6071 15.08830801118688,6917.909,95.438,540.596,538.951,0.0
52262.0,STARLINK-3761,PAYLOAD,2024-06-14 10:57:50,15.08850083,0.0001253,53.2187,71.7644,83.3565,276.757,0.00013762,1.904e-05,0.0,0 STARLINK-3761,1 52262U 22041B   24166.45683408  .00001904  00000-0  13762-3 0  9999,2 52262  53.2187  71.7644 0001253  83.3565 276.7570 15.08850083118760,6917.85,95.437,540.581,538.848,0.0
52262.0,STARLINK-3761,PAYLOAD,2024-06-14 22:05:33,15.08835816,0.0001103,53.2193,69.6867,87.1001,273.0117,9.2625e-05,1.186e-05,0.0,0 STARLINK-3761,1 52262U 22041B   24166.92052592  .00001186  00000-0  92625-4 0  9993,2 52262  53.2193  69.6867 0001103  87.1001 273.0117 15.08835816118833,6917.893,95.438,540.521,538.995,0.0
52262.0,STARLINK-3761,PAYLOAD,2024-06-15 10:48:37,15.08854006,0.0001135,53.2172,67.306,88.1024,272.0098,0.00014642,2.044e-05,0.0,0 STARLINK-3761,1 52262U 22041B   24167.45043183  .00002044  00000-0  14642-3 0  9994,2 52262  53.2172  67.3060 0001135  88.1024 272.0098 15.08854006118919,6917.838,95.437,540.488,538.917,0.0
52262.0,STARLINK-3761,PAYLOAD,2024-06-15 21:56:19,15.08844504,0.0001458,53.2182,65.2239,107.4405,252.6746,0.00018415,2.644e-05,0.0,0 STARLINK-3761,1 52262U 22041B   24167.91411841  .00002644  00000-0  18415-3 0  9993,2 52262  53.2182  65.2239 0001458 107.4405 252.6746 15.08844504118984,6917.867,95.437,540.74,538.723,0.0
52262.0,STARLINK-3761,PAYLOAD,2024-06-16 10:39:24,15.08853474,0.0001476,53.2178,62.8454,92.3531,267.763,0.0002898,4.329e-05,0.0,0 STARLINK-3761,1 52262U 22041B   24168.44403449  .00004329  00000-0  28980-3 0  9997,2 52262  53.2178  62.8454 0001476  92.3531 267.7630 15.08853474119068,6917.839,95.437,540.725,538.683,0.0
52262.0,STARLINK-3761,PAYLOAD,2024-06-16 23:22:30,15.08839883,0.0001421,53.217,60.4665,99.668,260.4473,0.00013191,1.812e-05,0.0,0 STARLINK-3761,1 52262U 22041B   24168.97396113  .00001812  00000-0  13191-3 0  9996,2 52262  53.2170  60.4665 0001421  99.6680 260.4473 15.08839883119145,6917.881,95.438,540.729,538.763,0.0
52262.0,STARLINK-3761,PAYLOAD,2024-06-17 23:13:17,15.08839452,0.0001357,53.2173,56.0083,95.5368,264.5779,0.00039364,5.982e-05,0.0,0 STARLINK-3761,1 52262U 22041B   24169.96756515  .00005982  00000-0  39364-3 0  9994,2 52262  53.2173  56.0083 0001357  95.5368 264.5779 15.08839452119291,6917.882,95.438,540.686,538.808,0.0
52262.0,STARLINK-3761,PAYLOAD,2024-06-18 02:24:03,15.08842864,0.0001353,53.2172,55.4131,94.7763,265.3383,0.0004824,7.398e-05,0.0,0 STARLINK-3761,1 52262U 22041B   24170.10004475  .00007398  00000-0  48240-3 0  9999,2 52262  53.2172  55.4131 0001353  94.7763 265.3383 15.08842864120533,6917.872,95.437,540.673,538.801,0.0
52262.0,STARLINK-3761,PAYLOAD,2024-06-18 19:53:18,15.08843971,0.0001292,53.217,52.1413,93.8941,266.2198,0.00026004,3.853e-05,0.0,0 STARLINK-3761,1 52262U 22041B   24170.82868406  .00003853  00000-0  26004-3 0  9996,2 52262  53.2170  52.1413 0001292  93.8941 266.2198 15.08843971120644,6917.868,95.437,540.627,538.839,0.0
52262.0,STARLINK-3761,PAYLOAD,2024-06-18 23:04:04,15.08845855,0.0001268,53.217,51.5469,92.1743,267.9394,0.00026819,3.984e-05,0.0,0 STARLINK-3761,1 52262U 22041B   24170.96116307  .00003984  00000-0  26819-3 0  9996,2 52262  53.2170  51.5469 0001268  92.1743 267.9394 15.08845855119448,6917.862,95.437,540.605,538.85,0.0
52262.0,STARLINK-3761,PAYLOAD,2024-06-19 08:36:22,15.0885425,0.0001266,53.2169,49.7625,92.3042,267.8095,0.00033326,5.022e-05,0.0,0 STARLINK-3761,1 52262U 22041B   24171.35859746  .00005022  00000-0  33326-3 0  9997,2 52262  53.2169  49.7625 0001266  92.3042 267.8095 15.08854250119504,6917.837,95.437,540.578,538.826,0.0
52262.0,STARLINK-3761,PAYLOAD,2024-06-19 21:19:28,15.08833167,0.0001369,53.2173,47.3843,94.6655,265.4494,-0.00010893,-2.021e-05,0.0,0 STARLINK-3761,1 52262U 22041B   24171.88852549 -.00002021  00000-0 -10893-3 0  9991,2 52262  53.2173  47.3843 0001369  94.6655 265.4494 15.08833167120800,6917.901,95.438,540.713,538.819,0.0
52262.0,STARLINK-3761,PAYLOAD,2024-06-20 08:27:10,15.08846418,0.0001424,53.2179,45.3036,98.5952,261.5202,0.00014961,2.094e-05,0.0,0 STARLINK-3761,1 52262U 22041B   24172.35220055  .00002094  00000-0  14961-3 0  9993,2 52262  53.2179  45.3036 0001424  98.5952 261.5202 15.08846418119651,6917.861,95.437,540.711,538.741,0.0
52262.0,STARLINK-3761,PAYLOAD,2024-06-20 22:45:38,15.08839353,0.0001428,53.2182,42.6248,85.0993,275.0162,-5.3469e-06,-3.73e-06,0.0,0 STARLINK-3761,1 52262U 22041B   24172.94836570 -.00000373  00000-0 -53469-5 0  9991,2 52262  53.2182  42.6248 0001428  85.0993 275.0162 15.08839353120961,6917.882,95.438,540.735,538.759,0.0
52262.0,STARLINK-3761,PAYLOAD,2024-06-21 01:56:25,15.08838942,0.0001483,53.2183,42.0303,86.9902,273.126,3.529e-05,2.74e-06,0.0,0 STARLINK-3761,1 52262U 22041B   24173.08084530  .00000274  00000-0  35290-4 0  9997,2 52262  53.2183  42.0303 0001483  86.9902 273.1260 15.08838942119766,6917.884,95.438,540.775,538.723,0.0
52262.0,STARLINK-3761,PAYLOAD,2024-06-21 21:01:02,15.08840806,0.0001476,53.218,38.4621,92.2285,267.8877,0.00018488,2.656e-05,0.0,0 STARLINK-3761,1 52262U 22041B   24173.87572830  .00002656  00000-0  18488-3 0  9994,2 52262  53.2180  38.4621 0001476  92.2285 267.8877 15.08840806119880,6917.878,95.438,540.764,538.722,0.0
52262.0,STARLINK-3761,PAYLOAD,2024-06-22 14:30:17,15.08842682,0.0001482,53.2179,35.1914,89.9066,270.2096,0.0002494,3.684e-05,0.0,0 STARLINK-3761,1 52262U 22041B   24174.60436936  .00003684  00000-0  24940-3 0  9994,2 52262  53.2179  35.1914 0001482  89.9066 270.2096 15.08842682119991,6917.872,95.437,540.762,538.712,0.0
52262.0,STARLINK-3761,PAYLOAD,2024-06-22 20:51:49,15.08844965,0.0001342,53.2172,34.0018,92.5232,267.5914,0.00022043,3.222e-05,0.0,0 STARLINK-3761,1 52262U 22041B   24174.86932773  .00003222  00000-0  22043-3 0  9992,2 52262  53.2172  34.0018 0001342  92.5232 267.5914 15.08844965121253,6917.865,95.437,540.659,538.802,0.0
52262.0,STARLINK-3761,PAYLOAD,2024-06-22 22:27:13,15.08845372,0.000131,53.217,33.7044,92.0564,268.0578,0.00022016,3.218e-05,0.0,0 STARLINK-3761,1 52262U 22041B   24174.93556737  .00003218  00000-0  22016-3 0  9997,2 52262  53.2170  33.7044 0001310  92.0564 268.0578 15.08845372120045,6917.864,95.437,540.635,538.823,0.0
52262.0,STARLINK-3761,PAYLOAD,2024-06-23 20:42:36,15.08845847,0.0001349,53.2174,29.5418,86.3863,273.7284,0.00017434,2.488e-05,0.0,0 STARLINK-3761,1 52262U 22041B   24175.86292721  .00002488  00000-0  17434-3 0  9996,2 52262  53.2174  29.5418 0001349  86.3863 273.7284 15.08845847121402,6917.863,95.437,540.661,538.794,0.0
52262.0,STARLINK-3761,PAYLOAD,2024-06-23 23:53:23,15.08847648,0.0001283,53.2171,28.9462,96.2864,263.8274,0.00018967,2.733e-05,0.0,0 STARLINK-3761,1 52262U 22041B   24175.99540527  .00002733  00000-0  18967-3 0  9995,2 52262  53.2171  28.9462 0001283  96.2864 263.8274 15.08847648120206,6917.857,95.437,540.61,538.834,0.0
52262.0,STARLINK-3761,PAYLOAD,2024-06-24 20:33:23,15.08842472,0.000129,53.2168,25.0795,93.915,266.1989,6.9693e-05,8.22e-06,0.0,0 STARLINK-3761,1 52262U 22041B   24176.85652673  .00000822  00000-0  69693-4 0  9997,2 52262  53.2168  25.0795 0001290  93.9150 266.1989 15.08842472121557,6917.873,95.437,540.63,538.845,0.0
52262.0,STARLINK-3761,PAYLOAD,2024-06-25 20:24:11,15.08840541,0.0001366,53.2177,20.6166,90.7626,269.3523,6.5723e-05,7.58e-06,0.0,0 STARLINK-3761,1 52262U 22041B   24177.85012748  .00000758  00000-0  65723-4 0  9999,2 52262  53.2177  20.6166 0001366  90.7626 269.3523 15.08840541120482,6917.879,95.438,540.689,538.799,0.0
52262.0,STARLINK-3761,PAYLOAD,2024-06-26 23:25:44,15.08838243,0.0001327,53.2184,15.5675,86.8108,273.3036,7.8355e-05,9.59e-06,0.0,0 STARLINK-3761,1 52262U 22041B   24178.97621078  .00000959  00000-0  78355-4 0  9993,2 52262  53.2184  15.5675 0001327  86.8108 273.3036 15.08838243121870,6917.886,95.438,540.669,538.833,0.0
52262.0,STARLINK-3761,PAYLOAD,2024-06-27 05:47:16,15.08846848,0.0001385,53.2182,14.3815,97.3071,262.8078,0.00016852,2.396e-05,0.0,0 STARLINK-3761,1 52262U 22041B   24179.24116568  .00002396  00000-0  16852-3 0  9997,2 52262  53.2182  14.3815 0001385  97.3071 262.8078 15.08846848121915,6917.859,95.437,540.683,538.766,0.0
52262.0,STARLINK-3761,PAYLOAD,2024-06-27 20:05:45,15.0882781,0.0001403,53.2181,11.7005,88.7599,271.3553,-8.4445e-05,-1.631e-05,0.0,0 STARLINK-3761,1 52262U 22041B   24179.83733794 -.00001631  00000-0 -84445-4 0  9995,2 52262  53.2181  11.7005 0001403  88.7599 271.3553 15.08827810122008,6917.918,95.438,540.753,538.812,0.0
52262.0,STARLINK-3761,PAYLOAD,2024-06-27 23:16:32,15.08835898,0.000133,53.2177,11.108,90.6941,269.4203,4.6293e-05,4.49e-06,0.0,0 STARLINK-3761,1 52262U 22041B   24179.96981518  .00000449  00000-0  46293-4 0  9991,2 52262  53.2177  11.1080 0001330  90.6941 269.4203 15.08835898122029,6917.893,95.438,540.678,538.838,0.0
